[{"OBJECT_NAME":"PRAETORIAN SDA_605","OBJECT_ID":"2025-203D","EPOCH":"2026-03-09T14:13:24.756960","MEAN_MOTION":13.83528896,"ECCENTRICITY":0.000955,"INCLINATION":81.2983,"RA_OF_ASC_NODE":102.8978,"ARG_OF_PERICENTER":98.6469,"MEAN_ANOMALY":261.5769,"EPHEMERIS_TYPE":0,"CLASSIFICATION_TYPE":"U","NORAD_CAT_ID":65568,"ELEMENT_SET_NO":999,"REV_AT_EPOCH":2492,"BSTAR":5.2426e-5,"MEAN_MOTION_DOT":7.0e-7,"MEAN_MOTION_DDOT":0},{"OBJECT_NAME":"SL-8 R\/B","OBJECT_ID":"1977-107B","EPOCH":"2026-03-09T17:36:13.452192","MEAN_MOTION":13.77136668,"ECCENTRICITY":0.00324556,"INCLINATION":82.9533,"RA_OF_ASC_NODE":166.6385,"ARG_OF_PERICENTER":224.4242,"MEAN_ANOMALY":246.6294,"EPHEMERIS_TYPE":0,"CLASSIFICATION_TYPE":"U","NORAD_CAT_ID":10461,"ELEMENT_SET_NO":999,"REV_AT_EPOCH":42914,"BSTAR":8.3638475e-5,"MEAN_MOTION_DOT":9.8e-7,"MEAN_MOTION_DDOT":0}]
